BEIDOU-2 IGSO-1 (C06)   
1 36828U 10036A   25237.69808693 -.00000134  00000+0  00000+0 0  9992
2 36828  54.2795 165.6377 0048514 217.0384 308.7875  1.00257010 55131
BEIDOU-2 G4 (C04)       
1 37210U 10057A   25237.80805815 -.00000119  00000+0  00000+0 0  9990
2 37210   2.9092  70.2982 0007058 167.5005 187.4670  1.00272670 54321
BEIDOU-2 IGSO-2 (C07)   
1 37256U 10068A   25237.55086240 -.00000179  00000+0  00000+0 0  9993
2 37256  48.0796 275.4934 0048600 216.0065 148.5250  1.00267349 53837
BEIDOU-2 IGSO-3 (C08)   
1 37384U 11013A   25230.41346553 -.00000151  00000+0  00000+0 0  9990
2 37384  61.9764  43.0156 0032504 176.0071   0.7796  1.00250840 52629
BEIDOU-2 IGSO-4 (C09)   
1 37763U 11038A   25236.65632447 -.00000106  00000+0  00000+0 0  9990
2 37763  54.5813 168.3346 0144786 231.0163 264.4177  1.00264149 51678
BEIDOU-2 IGSO-5 (C10)   
1 37948U 11073A   25235.57267032 -.00000157  00000+0  00000+0 0  9994
2 37948  48.2206 275.2240 0110292 221.1554 138.0992  1.00272399 50147
BEIDOU-2 G5 (C05)       
1 38091U 12008A   25237.96989716  .00000051  00000+0  00000+0 0  9990
2 38091   2.8330  71.0930 0005990 236.7612  74.4470  1.00271600 49409
BEIDOU-2 M3 (C11)       
1 38250U 12018A   25237.32506354 -.00000085  00000+0  00000+0 0  9999
2 38250  56.0088 314.8357 0023340 266.0656  93.7328  1.86233739 90431
BEIDOU-2 M4 (C12)       
1 38251U 12018B   25237.25776058 -.00000084  00000+0  00000+0 0  9991
2 38251  55.9115 314.0759 0014248 265.2900  94.6131  1.86232127 90431
BEIDOU-2 M6 (C14)       
1 38775U 12050B   25236.96841821 -.00000027  00000+0  00000+0 0  9993
2 38775  56.2804  72.7073 0011714 357.3885   2.6728  1.86231085 87796
BEIDOU-2 G6 (C02)       
1 38953U 12059A   25237.97492385 -.00000182  00000+0  00000+0 0  9991
2 38953   3.6670  76.6208 0007232 319.0785  13.6954  1.00275211 46948
BEIDOU-3S IGSO-1S (C31) 
1 40549U 15019A   25237.68399249 -.00000155  00000+0  00000+0 0  9997
2 40549  49.7540 299.0224 0041188 195.3498 179.8363  1.00263074 38115
BEIDOU-3S M2S (C58)     
1 40748U 15037A   25236.38794181 -.00000080  00000+0  00000+0 0  9995
2 40748  55.1319 312.2523 0011590 251.8497 108.0908  1.86229284 68595
BEIDOU-3S M1S (C57)     
1 40749U 15037B   25237.16962544 -.00000082  00000+0  00000+0 0  9995
2 40749  55.1278 312.2165 0002317   3.9570 356.1117  1.86254057 68614
BEIDOU-3S IGSO-2S (C56) 
1 40938U 15053A   25234.05104348 -.00000074  00000+0  00000+0 0  9999
2 40938  49.6853 262.3370 0060628 191.1366 347.9018  1.00252943 36358
BEIDOU-2 IGSO-6 (C13)   
1 41434U 16021A   25237.89606411 -.00000146  00000+0  00000+0 0  9990
2 41434  59.8142  40.9832 0055618 227.5320 124.3190  1.00274762 34511
BEIDOU-2 G7 (C03)       
1 41586U 16037A   25237.98021054 -.00000360  00000+0  00000+0 0  9997
2 41586   1.9317  69.4934 0008269  10.2384 358.1285  1.00268756  3937
BEIDOU-3 M1 (C19)       
1 43001U 17069A   25236.19704888 -.00000022  00000+0  00000+0 0  9997
2 43001  56.4290  72.8851 0007746 320.7585  39.2560  1.86231439 53078
BEIDOU-3 M2 (C20)       
1 43002U 17069B   25235.06130703 -.00000015  00000+0  00000+0 0  9994
2 43002  56.4266  72.9589 0006665 355.4965   4.5720  1.86230744 53045
BEIDOU-3 M7 (C27)       
1 43107U 18003A   25237.49059652 -.00000085  00000+0  00000+0 0  9998
2 43107  54.5894 312.6141 0003214  98.0483 262.0541  1.86232658 51841
BEIDOU-3 M8 (C28)       
1 43108U 18003B   25236.36070294 -.00000082  00000+0  00000+0 0  9996
2 43108  54.5831 312.6367 0004288 253.2734 106.7453  1.86231027 51833
BEIDOU-3 M4 (C22)       
1 43207U 18018A   25236.26526854 -.00000022  00000+0  00000+0 0  9993
2 43207  56.3878  72.9569 0006256  33.2032 326.9067  1.86231366 51213
BEIDOU-3 M3 (C21)       
1 43208U 18018B   25232.03621918 -.00000014  00000+0  00000+0 0  9993
2 43208  56.3832  73.1010 0006264 343.1409  16.9141  1.86231046 51133
BEIDOU-3 M9 (C29)       
1 43245U 18029A   25237.62251721 -.00000082  00000+0  00000+0 0  9992
2 43245  54.4603 310.2733 0001738 222.3103 137.7443  1.86232939 50392
BEIDOU-3 M10 (C30)      
1 43246U 18029B   25237.55652873 -.00000081  00000+0  00000+0 0  9997
2 43246  54.4579 310.3033 0002546  10.2957 349.7775  1.86229248 50378
BEIDOU-2 IGSO-7 (C16)   
1 43539U 18057A   25237.77900516 -.00000142  00000+0  00000+0 0  9995
2 43539  55.1706 165.6257 0092498 236.9492 323.0970  1.00290498 26161
BEIDOU-3 M5 (C23)       
1 43581U 18062A   25236.17037531 -.00000004  00000+0  00000+0 0  9996
2 43581  54.0978 192.4023 0004975 293.0930  66.8083  1.86228823 48102
BEIDOU-3 M6 (C24)       
1 43582U 18062B   25237.10800082  .00000007  00000+0  00000+0 0  9992
2 43582  54.0974 192.3597 0005464  12.8942 347.0773  1.86229882 48126
BEIDOU-3 M12 (C26)      
1 43602U 18067A   25237.04457146  .00000006  00000+0  00000+0 0  9991
2 43602  54.1912 191.0830 0007807  27.3987 332.6005  1.86227775 47600
BEIDOU-3 M11 (C25)      
1 43603U 18067B   25237.17880333  .00000008  00000+0  00000+0 0  9996
2 43603  54.1884 191.0427 0004567  13.1682 346.8025  1.86227245 47630
BEIDOU-3 M13 (C32)      
1 43622U 18072A   25237.67368047 -.00000032  00000+0  00000+0 0  9999
2 43622  56.3616  72.4295 0004497 325.6437  34.3915  1.86231358 47158
BEIDOU-3 M14 (C33)      
1 43623U 18072B   25234.85439792 -.00000015  00000+0  00000+0 0  9994
2 43623  56.3611  72.5167 0004011  15.6035 344.4832  1.86231333 47094
BEIDOU-3 M16 (C35)      
1 43647U 18078A   25237.16137036 -.00000081  00000+0  00000+0 0  9992
2 43647  54.3571 310.3522 0005865  25.9743 334.1231  1.86232373 46643
BEIDOU-3 M15 (C34)      
1 43648U 18078B   25237.29056375 -.00000081  00000+0  00000+0 0  9993
2 43648  54.3526 310.3489 0002523  39.4868 320.5995  1.86232431 46665
BEIDOU-3 G1 (C59)       
1 43683U 18085A   25237.98601723 -.00000284  00000+0  00000+0 0  9994
2 43683   2.8341 105.9961 0003932   4.8719 358.6146  1.00270337 25105
BEIDOU-3 M17 (C36)      
1 43706U 18093A   25237.63165939  .00000014  00000+0  00000+0 0  9995
2 43706  54.1811 192.3232 0009619 291.5583 192.0978  1.86228447 46033
BEIDOU-3 M18 (C37)      
1 43707U 18093B   25236.77186622  .00000003  00000+0  00000+0 0  9990
2 43707  54.1819 192.3441 0007957 320.1638  39.7339  1.86230078 46016
BEIDOU-3 IGSO-1 (C38)   
1 44204U 19023A   25237.10465178 -.00000203  00000+0  00000+0 0  9994
2 44204  58.2797  40.7059 0024731 215.6888 233.9992  1.00277400  4242
BEIDOU-2 G8 (C01)       
1 44231U 19027A   25238.45322580 -.00000251  00000+0  00000+0 0  9999
2 44231   1.3830  74.2525 0006413 274.3247 293.9037  1.00283108 23123
BEIDOU-3 IGSO-2 (C39)   
1 44337U 19035A   25237.74942456 -.00000147  00000+0  00000+0 0  9990
2 44337  55.2151 161.4606 0034994 209.4234 349.6942  1.00249432 22702
BEIDOU-3 M24 (C46)      
1 44542U 19061A   25237.38011296  .00000011  00000+0  00000+0 0  9995
2 44542  54.4091 192.7043 0008601 357.8045   2.1505  1.86229409 40285
BEIDOU-3 M23 (C45)      
1 44543U 19061B   25236.70329245  .00000002  00000+0  00000+0 0  9997
2 44543  54.4074 192.6954 0005797 340.6483 198.3169  1.86229617 40270
BEIDOU-3 IGSO-3 (C40)   
1 44709U 19073A   25236.53304402 -.00000161  00000+0  00000+0 0  9990
2 44709  55.3080 284.1047 0045697 191.0533 168.9554  1.00277740 21487
BEIDOU-3 M22 (C44)      
1 44793U 19078A   25237.22170186 -.00000081  00000+0  00000+0 0  9996
2 44793  54.2036 310.2288 0004613  34.5450 325.5530  1.86232281 39130
BEIDOU-3 M21 (C43)      
1 44794U 19078B   25237.35683451 -.00000081  00000+0  00000+0 0  9995
2 44794  54.1761 310.1913 0002654  23.3027 336.7773  1.86227865 39144
BEIDOU-3 M19 (C41)      
1 44864U 19090A   25237.29260531 -.00000029  00000+0  00000+0 0  9992
2 44864  56.2960  72.5892 0015629 289.3095 222.4356  1.86231764 38720
BEIDOU-3 M20 (C42)      
1 44865U 19090B   25237.20065358 -.00000029  00000+0  00000+0 0  9994
2 44865  56.2970  72.6263 0013278 305.0298 234.6921  1.86231687 38709
BEIDOU-3 G2 (C60)       
1 45344U 20017A   25238.61651164 -.00000148  00000+0  00000+0 0  9992
2 45344   2.7967  41.6858 0003142 263.3926 332.0745  1.00284459 20308
BEIDOU-3 G3 (C61)       
1 45807U 20040A   25232.78409072 -.00000372  00000+0  00000+0 0  9992
2 45807   1.7116  65.2529 0004308 335.4598 321.4431  1.00274649 19059
BEIDOU-3 G4 (C62)       
1 56564U 23066A   25237.80805828 -.00000119  00000+0  00000+0 0  9991
2 56564   1.0633 295.0873 0006282 204.7269 285.4230  1.00273020  8437
BEIDOU-3 M28 (C50)      
1 58654U 23207A   25236.89895796 -.00000030  00000+0  00000+0 0  9993
2 58654  55.4847  72.3178 0001014  25.1178 334.9541  1.86229991 11324
BEIDOU-3 M26 (C48)      
1 58655U 23207B   25237.23448247 -.00000032  00000+0  00000+0 0  9990
2 58655  55.4874  72.2926 0000780 263.1249  96.9319  1.86231653 11312
BEIDOU-3 M25 (C47)      
1 61186U 24168B   25237.67439546 -.00000085  00000+0  00000+0 0  9998
2 61186  54.7344 312.4996 0004426 279.0821 133.2459  1.86230290  6284
BEIDOU-3 M27 (C49)      
1 61187U 24168C   25237.41231244 -.00000084  00000+0  00000+0 0  9995
2 61187  54.7301 312.4927 0000695 319.5297  51.9860  1.86230325  3753
